METAR SPQT 061200Z 09015G25KT 8KM BKN020 OVC040 25/22 Q1013 NOSIG=
METAR SPQT 061300Z 08018G28KT 6KM -RA BKN015 OVC035 24/21 Q1012 NOSIG=
METAR SPQT 061400Z 10020G30KT 5KM RA BKN012 OVC030 23/20 Q1011 NOSIG=
METAR SPQT 061500Z 11022G32KT 4KM +RA BKN010 OVC025 22/19 Q1010 NOSIG=
METAR SPQT 061600Z 12025G35KT 8KM SCT020 BKN035 24/20 Q1011 NOSIG=
METAR SPQT 061700Z 11023G33KT 9KM FEW025 SCT040 25/21 Q1012 NOSIG=
METAR SPQT 061800Z 10020G28KT 10KM SKC 26/22 Q1013 NOSIG=
METAR SPQT 061900Z 09018G26KT 8KM BKN018 OVC035 25/23 Q1014 NOSIG=
METAR SPQT 062000Z 08016G24KT 7KM -RA BKN016 OVC030 24/22 Q1013 NOSIG=
METAR SPQT 062100Z 10019G29KT 6KM RA BKN014 OVC028 23/21 Q1012 NOSIG=
METAR SPQT 062200Z 11021G31KT 5KM +RA BKN012 OVC026 22/20 Q1011 NOSIG=
METAR SPQT 062300Z 12023G33KT 7KM SCT019 BKN034 24/21 Q1010 NOSIG=
METAR SPQT 070000Z 11022G32KT 8KM FEW024 SCT039 25/22 Q1011 NOSIG=
METAR SPQT 070100Z 10020G28KT 9KM CLR 26/23 Q1012 NOSIG=
METAR SPQT 070200Z 09017G25KT 8KM BKN021 OVC036 25/22 Q1013 NOSIG=
METAR SPQT 070300Z 08015G23KT 7KM -RA BKN019 OVC033 24/21 Q1012 NOSIG=
METAR SPQT 070400Z 10018G28KT 6KM RA BKN017 OVC031 23/20 Q1011 NOSIG=
METAR SPQT 070500Z 11020G30KT 5KM +RA BKN015 OVC029 22/19 Q1010 NOSIG=
METAR SPQT 070600Z 12024G34KT 7KM SCT022 BKN037 24/20 Q1011 NOSIG=
METAR SPQT 070700Z 11023G33KT 8KM FEW027 SCT042 25/21 Q1012 NOSIG=
METAR SPQT 070800Z 10021G29KT 9KM BKN025 OVC040 26/22 Q1013 NOSIG=
METAR SPQT 070900Z 09019G27KT 8KM -RA BKN023 OVC038 25/23 Q1014 NOSIG=
METAR SPQT 071000Z 08017G25KT 7KM RA BKN021 OVC036 24/22 Q1013 NOSIG=
METAR SPQT 071100Z 10020G30KT 6KM +RA BKN019 OVC034 23/21 Q1012 NOSIG=
METAR SPQT 071200Z 11022G32KT 5KM SCT020 BKN035 22/20 Q1011 NOSIG=
METAR SPQT 071300Z 12025G35KT 7KM FEW026 SCT041 24/21 Q1010 NOSIG=
METAR SPQT 071400Z 11024G34KT 8KM BKN028 OVC043 25/22 Q1011 NOSIG=
METAR SPQT 071500Z 10022G30KT 9KM CLR 26/23 Q1012 NOSIG=
METAR SPQT 071600Z 09020G28KT 8KM -RA BKN024 OVC039 25/22 Q1013 NOSIG=
METAR SPQT 071700Z 08018G26KT 7KM RA BKN022 OVC037 24/21 Q1012 NOSIG=
METAR SPQT 071800Z 10021G31KT 6KM +RA BKN020 OVC035 23/20 Q1011 NOSIG=
METAR SPQT 071900Z 11023G33KT 5KM SCT021 BKN036 22/19 Q1010 NOSIG=
METAR SPQT 072000Z 12026G36KT 7KM FEW025 SCT040 24/20 Q1011 NOSIG=
METAR SPQT 072100Z 11025G35KT 8KM BKN029 OVC044 25/21 Q1012 NOSIG=
METAR SPQT 072200Z 10023G31KT 9KM SKC 26/22 Q1013 NOSIG=
METAR SPQT 072300Z 09021G29KT 8KM -RA BKN025 OVC040 25/23 Q1014 NOSIG=
METAR SPQT 080000Z 08019G27KT 7KM RA BKN023 OVC038 24/22 Q1013 NOSIG=
METAR SPQT 080100Z 10022G32KT 6KM +RA BKN021 OVC036 23/21 Q1012 NOSIG=
METAR SPQT 080200Z 11024G34KT 5KM SCT022 BKN037 22/20 Q1011 NOSIG=
METAR SPQT 080300Z 12027G37KT 7KM FEW027 SCT042 24/21 Q1010 NOSIG=
METAR SPQT 080400Z 11026G36KT 8KM BKN030 OVC045 25/22 Q1011 NOSIG=
METAR SPQT 080500Z 10024G32KT 9KM CLR 26/23 Q1012 NOSIG=
METAR SPQT 080600Z 09022G30KT 8KM -RA BKN026 OVC041 25/22 Q1013 NOSIG=
METAR SPQT 080700Z 08020G28KT 7KM RA BKN024 OVC039 24/21 Q1012 NOSIG=
METAR SPQT 080800Z 10023G33KT 6KM +RA BKN022 OVC037 23/20 Q1011 NOSIG=
METAR SPQT 080900Z 11025G35KT 5KM SCT023 BKN038 22/19 Q1010 NOSIG=
METAR SPQT 081000Z 12028G38KT 7KM FEW028 SCT043 24/20 Q1011 NOSIG=
METAR SPQT 081100Z 11027G37KT 8KM BKN031 OVC046 25/21 Q1012 NOSIG=
METAR SPQT 081200Z 10025G33KT 9KM SKC 26/22 Q1013 NOSIG=
METAR SPQT 081300Z 09023G31KT 8KM -RA BKN027 OVC042 25/23 Q1014 NOSIG=
METAR SPQT 081400Z 08021G29KT 7KM RA BKN025 OVC040 24/22 Q1013 NOSIG=
METAR SPQT 081500Z 10024G34KT 6KM +RA BKN023 OVC038 23/21 Q1012 NOSIG=
METAR SPQT 081600Z 11026G36KT 5KM SCT024 BKN039 22/20 Q1011 NOSIG=
METAR SPQT 081700Z 12029G39KT 7KM FEW029 SCT044 24/21 Q1010 NOSIG=
METAR SPQT 081800Z 11028G38KT 8KM BKN032 OVC047 25/22 Q1011 NOSIG=
METAR SPQT 081900Z 10026G34KT 9KM CLR 26/23 Q1012 NOSIG=
METAR SPQT 082000Z 09024G32KT 8KM -RA BKN028 OVC043 25/22 Q1013 NOSIG=
METAR SPQT 082100Z 08022G30KT 7KM RA BKN026 OVC041 24/21 Q1012 NOSIG=
METAR SPQT 082200Z 10025G35KT 6KM +RA BKN024 OVC039 23/20 Q1011 NOSIG=
METAR SPQT 082300Z 11027G37KT 5KM SCT025 BKN040 22/19 Q1010 NOSIG=
METAR SPQT 090000Z 12030G40KT 7KM FEW030 SCT045 24/20 Q1011 NOSIG=
METAR SPQT 090100Z 11029G39KT 8KM BKN033 OVC048 25/21 Q1012 NOSIG=
METAR SPQT 090200Z 10027G35KT 9KM SKC 26/22 Q1013 NOSIG=
METAR SPQT 090300Z 09025G33KT 8KM -RA BKN029 OVC044 25/23 Q1014 NOSIG=
METAR SPQT 090400Z 08023G31KT 7KM RA BKN027 OVC042 24/22 Q1013 NOSIG=
METAR SPQT 090500Z 10026G36KT 6KM +RA BKN025 OVC040 23/21 Q1012 NOSIG=
METAR SPQT 090600Z 11028G38KT 5KM SCT026 BKN041 22/20 Q1011 NOSIG=
METAR SPQT 090700Z 12031G41KT 7KM FEW031 SCT046 24/21 Q1010 NOSIG=
METAR SPQT 090800Z 11030G40KT 8KM BKN034 OVC049 25/22 Q1011 NOSIG=
METAR SPQT 090900Z 10028G36KT 9KM CLR 26/23 Q1012 NOSIG=
METAR SPQT 091000Z 09026G34KT 8KM -RA BKN030 OVC045 25/22 Q1013 NOSIG=
METAR SPQT 091100Z 08024G32KT 7KM RA BKN028 OVC043 24/21 Q1012 NOSIG=
METAR SPQT 091200Z 10027G37KT 6KM +RA BKN026 OVC041 23/20 Q1011 NOSIG=
METAR SPQT 091300Z 11029G39KT 5KM SCT027 BKN042 22/19 Q1010 NOSIG=
METAR SPQT 091400Z 12032G42KT 7KM FEW032 SCT047 24/20 Q1011 NOSIG=
METAR SPQT 091500Z 11031G41KT 8KM BKN035 OVC050 25/21 Q1012 NOSIG=
METAR SPQT 091600Z 10029G37KT 9KM SKC 26/22 Q1013 NOSIG=
METAR SPQT 091700Z 09027G35KT 8KM -RA BKN031 OVC046 25/23 Q1014 NOSIG=
METAR SPQT 091800Z 08025G33KT 7KM RA BKN029 OVC044 24/22 Q1013 NOSIG=
METAR SPQT 091900Z 10028G38KT 6KM +RA BKN027 OVC042 23/21 Q1012 NOSIG=
METAR SPQT 092000Z 11030G40KT 5KM SCT028 BKN043 22/20 Q1011 NOSIG=
METAR SPQT 092100Z 12033G43KT 7KM FEW033 SCT048 24/21 Q1010 NOSIG=
METAR SPQT 092200Z 11032G42KT 8KM BKN036 OVC051 25/22 Q1011 NOSIG=
METAR SPQT 092300Z 10030G38KT 9KM CLR 26/23 Q1012 NOSIG=
METAR SPQT 100000Z 09028G36KT 8KM -RA BKN032 OVC047 25/22 Q1013 NOSIG=
METAR SPQT 100100Z 08026G34KT 7KM RA BKN030 OVC045 24/21 Q1012 NOSIG=
METAR SPQT 100200Z 10029G39KT 6KM +RA BKN028 OVC043 23/20 Q1011 NOSIG=
METAR SPQT 100300Z 11031G41KT 5KM SCT029 BKN044 22/19 Q1010 NOSIG=
METAR SPQT 100400Z 12034G44KT 7KM FEW034 SCT049 24/20 Q1011 NOSIG=
METAR SPQT 100500Z 11033G43KT 8KM BKN037 OVC052 25/21 Q1012 NOSIG=
METAR SPQT 100600Z 10031G39KT 9KM SKC 26/22 Q1013 NOSIG=
METAR SPQT 100700Z 09029G37KT 8KM -RA BKN033 OVC048 25/23 Q1014 NOSIG=
METAR SPQT 100800Z 08027G35KT 7KM RA BKN031 OVC046 24/22 Q1013 NOSIG=
METAR SPQT 100900Z 10030G40KT 6KM +RA BKN029 OVC044 23/21 Q1012 NOSIG=
METAR SPQT 101000Z 11032G42KT 5KM SCT030 BKN045 22/20 Q1011 NOSIG=
METAR SPQT 101100Z 12035G45KT 7KM FEW035 SCT050 24/21 Q1010 NOSIG=
METAR SPQT 101200Z 11034G44KT 8KM BKN038 OVC053 25/22 Q1011 NOSIG=
METAR SPQT 101300Z 10032G40KT 9KM CLR 26/23 Q1012 NOSIG=
METAR SPQT 101400Z 09030G38KT 8KM -RA BKN034 OVC049 25/22 Q1013 NOSIG=
METAR SPQT 101500Z 08028G36KT 7KM RA BKN032 OVC047 24/21 Q1012 NOSIG=
METAR SPQT 101600Z 10031G41KT 6KM +RA BKN030 OVC045 23/20 Q1011 NOSIG=
METAR SPQT 101700Z 11033G43KT 5KM SCT031 BKN046 22/19 Q1010 NOSIG=
METAR SPQT 101800Z 12036G46KT 7KM FEW036 SCT051 24/20 Q1011 NOSIG=
METAR SPQT 101900Z 11035G45KT 8KM BKN039 OVC054 25/21 Q1012 NOSIG=
METAR SPQT 102000Z 10033G41KT 9KM SKC 26/22 Q1013 NOSIG=
METAR SPQT 102100Z 09031G39KT 8KM -RA BKN035 OVC050 25/23 Q1014 NOSIG=
METAR SPQT 102200Z 08029G37KT 7KM RA BKN033 OVC048 24/22 Q1013 NOSIG=
METAR SPQT 102300Z 10032G42KT 6KM +RA BKN031 OVC046 23/21 Q1012 NOSIG=
METAR SPQT 110000Z 11034G44KT 5KM SCT032 BKN047 22/20 Q1011 NOSIG=
METAR SPQT 110100Z 12037G47KT 7KM FEW037 SCT052 24/21 Q1010 NOSIG=
METAR SPQT 110200Z 11036G46KT 8KM BKN040 OVC055 25/22 Q1011 NOSIG=
METAR SPQT 110300Z 10034G42KT 9KM CLR 26/23 Q1012 NOSIG=
METAR SPQT 110400Z 09032G40KT 8KM -RA BKN036 OVC051 25/22 Q1013 NOSIG=
METAR SPQT 110500Z 08030G38KT 7KM RA BKN034 OVC049 24/21 Q1012 NOSIG=
METAR SPQT 110600Z 10033G43KT 6KM +RA BKN032 OVC047 23/20 Q1011 NOSIG=
METAR SPQT 110700Z 11035G45KT 5KM SCT033 BKN048 22/19 Q1010 NOSIG=
METAR SPQT 110800Z 12038G48KT 7KM FEW038 SCT053 24/20 Q1011 NOSIG=
METAR SPQT 110900Z 11037G47KT 8KM BKN041 OVC056 25/21 Q1012 NOSIG=
METAR SPQT 111000Z 10035G43KT 9KM SKC 26/22 Q1013 NOSIG=
METAR SPQT 111100Z 09033G41KT 8KM -RA BKN037 OVC052 25/23 Q1014 NOSIG=
METAR SPQT 111200Z 08031G39KT 7KM RA BKN035 OVC050 24/22 Q1013 NOSIG=
METAR SPQT 111300Z 10034G44KT 6KM +RA BKN033 OVC048 23/21 Q1012 NOSIG=
METAR SPQT 111400Z 11036G46KT 5KM SCT034 BKN049 22/20 Q1011 NOSIG=
METAR SPQT 111500Z 12039G49KT 7KM FEW039 SCT054 24/21 Q1010 NOSIG=
METAR SPQT 111600Z 11038G48KT 8KM BKN042 OVC057 25/22 Q1011 NOSIG=
